{
  "norad_id": 49428,
  "name": "STARLINK-3121",
  "history": [
    {
      "epoch": "2026-03-28T20:42:13.846464Z",
      "apogee_km": 540.6772803070735,
      "perigee_km": 538.8205197315083,
      "latitude_deg": 7.979292381990505e-06,
      "longitude_deg": 6.126899669502108,
      "height_km": 540.6451590992533,
      "semi_major_axis_km": 6917.885900019291,
      "eccentricity": 0.0001342,
      "inclination_deg": 53.2165,
      "raan_deg": 142.9616,
      "arg_perigee_deg": 90.0386,
      "mean_anomaly_deg": 270.076,
      "mean_motion_rev_day": 15.08838197
    }
  ]
}